{
  "type": "FeatureCollection",
  "features": [
    {
      "type": "Feature",
      "properties": {
        "norad_id": 35052,
        "name": "IRIDIUM 33 DEB",
        "group": "iridium-33-debris",
        "lat": 19.972785922073527,
        "lon": -156.8089984971135,
        "alt_km": 757.325260917848,
        "timestamp": "2025-12-03T06:58:43.626898+00:00",
        "meta_object_name": "IRIDIUM 33 DEB",
        "meta_object_id": "1997-051NY",
        "meta_epoch": "2025-12-02T10:12:18.686592",
        "meta_mean_motion": 14.38472641,
        "meta_eccentricity": 0.00135314,
        "meta_inclination": 86.332,
        "meta_ra_of_asc_node": 24.8977,
        "meta_arg_of_pericenter": 113.8149,
        "meta_mean_anomaly": 246.4469,
        "meta_ephemeris_type": 0,
        "meta_classification_type": "U",
        "meta_norad_cat_id": 35052,
        "meta_element_set_no": 999,
        "meta_rev_at_epoch": 87127,
        "meta_bstar": 0.00026027257,
        "meta_mean_motion_dot": 8.15e-06,
        "meta_mean_motion_ddot": 0,
        "tle_line1": "1 35052U 97051NY  25336.42521628  .00000815  00000+0  26027-3 0  9999",
        "tle_line2": "2 35052  86.3320  24.8977 0013531 113.8149 246.4469 14.38472641871276"
      },
      "geometry": {
        "type": "Point",
        "coordinates": [
          -156.8089984971135,
          19.972785922073527
        ]
      }
    },
    {
      "type": "Feature",
      "properties": {
        "norad_id": 35080,
        "name": "IRIDIUM 33 DEB",
        "group": "iridium-33-debris",
        "lat": -10.311251302840587,
        "lon": -122.42343424754462,
        "alt_km": 579.1661271808525,
        "timestamp": "2025-12-03T06:58:43.626908+00:00",
        "meta_object_name": "IRIDIUM 33 DEB",
        "meta_object_id": "1997-051PF",
        "meta_epoch": "2025-12-01T23:22:16.261248",
        "meta_mean_motion": 14.83809313,
        "meta_eccentricity": 0.00642465,
        "meta_inclination": 86.2057,
        "meta_ra_of_asc_node": 57.5123,
        "meta_arg_of_pericenter": 215.9752,
        "meta_mean_anomaly": 143.7139,
        "meta_ephemeris_type": 0,
        "meta_classification_type": "U",
        "meta_norad_cat_id": 35080,
        "meta_element_set_no": 999,
        "meta_rev_at_epoch": 69528,
        "meta_bstar": 0.0089496131,
        "meta_mean_motion_dot": 0.00077648,
        "meta_mean_motion_ddot": 0,
        "tle_line1": "1 35080U 97051PF  25335.97379932  .00077648  00000+0  89496-2 0  9994",
        "tle_line2": "2 35080  86.2057  57.5123 0064246 215.9752 143.7139 14.83809313695280"
      },
      "geometry": {
        "type": "Point",
        "coordinates": [
          -122.42343424754462,
          -10.311251302840587
        ]
      }
    },
    {
      "type": "Feature",
      "properties": {
        "norad_id": 35297,
        "name": "IRIDIUM 33 DEB",
        "group": "iridium-33-debris",
        "lat": -21.32603379934293,
        "lon": -111.79453275810604,
        "alt_km": 737.319440134841,
        "timestamp": "2025-12-03T06:58:43.626918+00:00",
        "meta_object_name": "IRIDIUM 33 DEB",
        "meta_object_id": "1997-051PM",
        "meta_epoch": "2025-11-28T13:02:32.385696",
        "meta_mean_motion": 14.4505178,
        "meta_eccentricity": 0.00162447,
        "meta_inclination": 86.3859,
        "meta_ra_of_asc_node": 68.817,
        "meta_arg_of_pericenter": 185.2069,
        "meta_mean_anomaly": 174.8967,
        "meta_ephemeris_type": 0,
        "meta_classification_type": "U",
        "meta_norad_cat_id": 35297,
        "meta_element_set_no": 999,
        "meta_rev_at_epoch": 70221,
        "meta_bstar": 0.00072341306,
        "meta_mean_motion_dot": 2.549e-05,
        "meta_mean_motion_ddot": 0,
        "tle_line1": "1 35297U 97051PM  25332.54343039  .00002549  00000+0  72341-3 0  9993",
        "tle_line2": "2 35297  86.3859  68.8170 0016244 185.2069 174.8967 14.45051780702214"
      },
      "geometry": {
        "type": "Point",
        "coordinates": [
          -111.79453275810604,
          -21.32603379934293
        ]
      }
    },
    {
      "type": "Feature",
      "properties": {
        "norad_id": 35299,
        "name": "IRIDIUM 33 DEB",
        "group": "iridium-33-debris",
        "lat": -79.01227069283847,
        "lon": 17.773296442058392,
        "alt_km": 798.7247356443713,
        "timestamp": "2025-12-03T06:58:43.626928+00:00",
        "meta_object_name": "IRIDIUM 33 DEB",
        "meta_object_id": "1997-051PP",
        "meta_epoch": "2025-12-02T11:38:41.155584",
        "meta_mean_motion": 14.40775501,
        "meta_eccentricity": 0.00585815,
        "meta_inclination": 86.2895,
        "meta_ra_of_asc_node": 37.6494,
        "meta_arg_of_pericenter": 135.0483,
        "meta_mean_anomaly": 289.2152,
        "meta_ephemeris_type": 0,
        "meta_classification_type": "U",
        "meta_norad_cat_id": 35299,
        "meta_element_set_no": 999,
        "meta_rev_at_epoch": 86183,
        "meta_bstar": 0.00106804,
        "meta_mean_motion_dot": 3.506e-05,
        "meta_mean_motion_ddot": 0,
        "tle_line1": "1 35299U 97051PP  25336.48519856  .00003506  00000+0  10680-2 0  9995",
        "tle_line2": "2 35299  86.2895  37.6494 0058581 135.0483 289.2152 14.40775501861831"
      },
      "geometry": {
        "type": "Point",
        "coordinates": [
          17.773296442058392,
          -79.01227069283847
        ]
      }
    },
    {
      "type": "Feature",
      "properties": {
        "norad_id": 35480,
        "name": "IRIDIUM 33 DEB",
        "group": "iridium-33-debris",
        "lat": 76.94020499146235,
        "lon": 44.9469183374488,
        "alt_km": 713.082317760789,
        "timestamp": "2025-12-03T06:58:43.626937+00:00",
        "meta_object_name": "IRIDIUM 33 DEB",
        "meta_object_id": "1997-051QA",
        "meta_epoch": "2025-12-01T21:29:27.496896",
        "meta_mean_motion": 14.49686619,
        "meta_eccentricity": 0.00155495,
        "meta_inclination": 86.3575,
        "meta_ra_of_asc_node": 29.6125,
        "meta_arg_of_pericenter": 136.7189,
        "meta_mean_anomaly": 223.524,
        "meta_ephemeris_type": 0,
        "meta_classification_type": "U",
        "meta_norad_cat_id": 35480,
        "meta_element_set_no": 999,
        "meta_rev_at_epoch": 86874,
        "meta_bstar": 0.000651702,
        "meta_mean_motion_dot": 2.53e-05,
        "meta_mean_motion_ddot": 0,
        "tle_line1": "1 35480U 97051QA  25335.89545714  .00002530  00000+0  65170-3 0  9994",
        "tle_line2": "2 35480  86.3575  29.6125 0015549 136.7189 223.5240 14.49686619868745"
      },
      "geometry": {
        "type": "Point",
        "coordinates": [
          44.9469183374488,
          76.94020499146235
        ]
      }
    },
    {
      "type": "Feature",
      "properties": {
        "norad_id": 35484,
        "name": "IRIDIUM 33 DEB",
        "group": "iridium-33-debris",
        "lat": 36.192561039938425,
        "lon": -0.16816880979318533,
        "alt_km": 579.4896116967102,
        "timestamp": "2025-12-03T06:58:43.626948+00:00",
        "meta_object_name": "IRIDIUM 33 DEB",
        "meta_object_id": "1997-051QE",
        "meta_epoch": "2025-12-01T19:32:14.692416",
        "meta_mean_motion": 14.97587734,
        "meta_eccentricity": 0.00218288,
        "meta_inclination": 86.3628,
        "meta_ra_of_asc_node": 357.8533,
        "meta_arg_of_pericenter": 162.6444,
        "meta_mean_anomaly": 197.5538,
        "meta_ephemeris_type": 0,
        "meta_classification_type": "U",
        "meta_norad_cat_id": 35484,
        "meta_element_set_no": 999,
        "meta_rev_at_epoch": 61852,
        "meta_bstar": 0.0025030806,
        "meta_mean_motion_dot": 0.00029486,
        "meta_mean_motion_ddot": 0,
        "tle_line1": "1 35484U 97051QE  25335.81405894  .00029486  00000+0  25031-2 0  9994",
        "tle_line2": "2 35484  86.3628 357.8533 0021828 162.6444 197.5538 14.97587734618526"
      },
      "geometry": {
        "type": "Point",
        "coordinates": [
          -0.16816880979318533,
          36.192561039938425
        ]
      }
    },
    {
      "type": "Feature",
      "properties": {
        "norad_id": 35488,
        "name": "IRIDIUM 33 DEB",
        "group": "iridium-33-debris",
        "lat": -53.85812935516073,
        "lon": -59.8175782693826,
        "alt_km": 640.7418024073986,
        "timestamp": "2025-12-03T06:58:43.626958+00:00",
        "meta_object_name": "IRIDIUM 33 DEB",
        "meta_object_id": "1997-051QJ",
        "meta_epoch": "2025-12-02T15:01:28.223904",
        "meta_mean_motion": 14.82653192,
        "meta_eccentricity": 0.0030768,
        "meta_inclination": 86.3233,
        "meta_ra_of_asc_node": 305.5399,
        "meta_arg_of_pericenter": 74.7602,
        "meta_mean_anomaly": 285.7019,
        "meta_ephemeris_type": 0,
        "meta_classification_type": "U",
        "meta_norad_cat_id": 35488,
        "meta_element_set_no": 999,
        "meta_rev_at_epoch": 88116,
        "meta_bstar": 0.0017350437,
        "meta_mean_motion_dot": 0.00014134,
        "meta_mean_motion_ddot": 0,
        "tle_line1": "1 35488U 97051QJ  25336.62602111  .00014134  00000+0  17350-2 0  9998",
        "tle_line2": "2 35488  86.3233 305.5399 0030768  74.7602 285.7019 14.82653192881166"
      },
      "geometry": {
        "type": "Point",
        "coordinates": [
          -59.8175782693826,
          -53.85812935516073
        ]
      }
    }
  ]
}